{"fetched_at":"2026-07-17T17:38:30.220Z","source":"https://celestrak.org/NORAD/elements/gp.php?NAME=PLEIADES&FORMAT=JSON","constellation":"pleiades","records":[{"OBJECT_NAME":"PLEIADES 1A","OBJECT_ID":"2011-076F","EPOCH":"2026-07-17T07:29:27.404736","CLASSIFICATION_TYPE":"U","MEAN_MOTION":14.58546755,"ECCENTRICITY":0.00016563,"INCLINATION":98.1971,"RA_OF_ASC_NODE":273.0087,"ARG_OF_PERICENTER":78.9089,"MEAN_ANOMALY":350.857,"EPHEMERIS_TYPE":0,"NORAD_CAT_ID":38012,"ELEMENT_SET_NO":999,"REV_AT_EPOCH":77638,"BSTAR":-0.000009301133,"MEAN_MOTION_DOT":-8.9e-7,"MEAN_MOTION_DDOT":0},{"OBJECT_NAME":"PLEIADES 1B","OBJECT_ID":"2012-068A","EPOCH":"2026-07-17T07:59:17.349216","CLASSIFICATION_TYPE":"U","MEAN_MOTION":14.58534988,"ECCENTRICITY":0.0001552,"INCLINATION":98.1942,"RA_OF_ASC_NODE":272.9676,"ARG_OF_PERICENTER":78.4292,"MEAN_ANOMALY":281.7081,"EPHEMERIS_TYPE":0,"NORAD_CAT_ID":39019,"ELEMENT_SET_NO":999,"REV_AT_EPOCH":72524,"BSTAR":0.000036237887,"MEAN_MOTION_DOT":0.00000123,"MEAN_MOTION_DDOT":0}]}
